[{"OBJECT_NAME":"HXMT (HUIYAN)","OBJECT_ID":"2017-034A","EPOCH":"2026-04-25T07:19:41.195424","MEAN_MOTION":15.17987361,"ECCENTRICITY":0.00313182,"INCLINATION":43.0135,"RA_OF_ASC_NODE":117.3894,"ARG_OF_PERICENTER":172.2821,"MEAN_ANOMALY":187.8515,"EPHEMERIS_TYPE":0,"CLASSIFICATION_TYPE":"U","NORAD_CAT_ID":42758,"ELEMENT_SET_NO":999,"REV_AT_EPOCH":48962,"BSTAR":0.00016628396,"MEAN_MOTION_DOT":3.24e-5,"MEAN_MOTION_DDOT":0},{"OBJECT_NAME":"SAOCOM 1A","OBJECT_ID":"2018-076A","EPOCH":"2026-04-25T06:36:25.254720","MEAN_MOTION":14.82152135,"ECCENTRICITY":0.00015315,"INCLINATION":97.8906,"RA_OF_ASC_NODE":302.789,"ARG_OF_PERICENTER":89.9234,"MEAN_ANOMALY":270.2155,"EPHEMERIS_TYPE":0,"CLASSIFICATION_TYPE":"U","NORAD_CAT_ID":43641,"ELEMENT_SET_NO":999,"REV_AT_EPOCH":40826,"BSTAR":4.6853262e-5,"MEAN_MOTION_DOT":3.21e-6,"MEAN_MOTION_DDOT":0},{"OBJECT_NAME":"H-2A R/B","OBJECT_ID":"2018-084L","EPOCH":"2026-04-25T05:59:47.624928","MEAN_MOTION":15.43182716,"ECCENTRICITY":0.00233672,"INCLINATION":98.8663,"RA_OF_ASC_NODE":342.6469,"ARG_OF_PERICENTER":218.6327,"MEAN_ANOMALY":141.3245,"EPHEMERIS_TYPE":0,"CLASSIFICATION_TYPE":"U","NORAD_CAT_ID":43682,"ELEMENT_SET_NO":999,"REV_AT_EPOCH":41295,"BSTAR":0.00044132426,"MEAN_MOTION_DOT":0.00019675,"MEAN_MOTION_DDOT":0},{"OBJECT_NAME":"SAOCOM 1B","OBJECT_ID":"2020-059A","EPOCH":"2026-04-25T07:21:20.705760","MEAN_MOTION":14.82140294,"ECCENTRICITY":0.00015851,"INCLINATION":97.8899,"RA_OF_ASC_NODE":301.9138,"ARG_OF_PERICENTER":83.6094,"MEAN_ANOMALY":276.53,"EPHEMERIS_TYPE":0,"CLASSIFICATION_TYPE":"U","NORAD_CAT_ID":46265,"ELEMENT_SET_NO":999,"REV_AT_EPOCH":30565,"BSTAR":-3.8518126e-5,"MEAN_MOTION_DOT":-3.59e-6,"MEAN_MOTION_DDOT":0},{"OBJECT_NAME":"CSS (TIANHE)","OBJECT_ID":"2021-035A","EPOCH":"2026-04-24T22:45:00.517824","MEAN_MOTION":15.62906639,"ECCENTRICITY":0.00068165,"INCLINATION":41.467,"RA_OF_ASC_NODE":286.2208,"ARG_OF_PERICENTER":268.4201,"MEAN_ANOMALY":91.5858,"EPHEMERIS_TYPE":0,"CLASSIFICATION_TYPE":"U","NORAD_CAT_ID":48274,"ELEMENT_SET_NO":999,"REV_AT_EPOCH":28484,"BSTAR":0.00028753318,"MEAN_MOTION_DOT":0.00026533,"MEAN_MOTION_DDOT":0},{"OBJECT_NAME":"COSMOS 2550","OBJECT_ID":"2021-056A","EPOCH":"2026-04-25T08:04:21.504864","MEAN_MOTION":15.33847514,"ECCENTRICITY":0.00083649,"INCLINATION":67.1422,"RA_OF_ASC_NODE":259.7768,"ARG_OF_PERICENTER":269.7534,"MEAN_ANOMALY":90.2662,"EPHEMERIS_TYPE":0,"CLASSIFICATION_TYPE":"U","NORAD_CAT_ID":48865,"ELEMENT_SET_NO":999,"REV_AT_EPOCH":27061,"BSTAR":0.00018392226,"MEAN_MOTION_DOT":5.867e-5,"MEAN_MOTION_DDOT":0},{"OBJECT_NAME":"CZ-2C R/B","OBJECT_ID":"2022-058K","EPOCH":"2026-04-25T06:20:25.360224","MEAN_MOTION":15.57685776,"ECCENTRICITY":0.0038989,"INCLINATION":50.1869,"RA_OF_ASC_NODE":78.0666,"ARG_OF_PERICENTER":40.3055,"MEAN_ANOMALY":320.0796,"EPHEMERIS_TYPE":0,"CLASSIFICATION_TYPE":"U","NORAD_CAT_ID":52794,"ELEMENT_SET_NO":999,"REV_AT_EPOCH":21738,"BSTAR":0.00059591338,"MEAN_MOTION_DOT":0.00046416,"MEAN_MOTION_DDOT":0},{"OBJECT_NAME":"CZ-2C R/B","OBJECT_ID":"2022-132E","EPOCH":"2026-04-25T00:18:07.731936","MEAN_MOTION":15.66080823,"ECCENTRICITY":0.00129067,"INCLINATION":97.2949,"RA_OF_ASC_NODE":119.8916,"ARG_OF_PERICENTER":275.7053,"MEAN_ANOMALY":84.2736,"EPHEMERIS_TYPE":0,"CLASSIFICATION_TYPE":"U","NORAD_CAT_ID":54039,"ELEMENT_SET_NO":999,"REV_AT_EPOCH":19761,"BSTAR":0.0003983284,"MEAN_MOTION_DOT":0.00040955,"MEAN_MOTION_DDOT":0},{"OBJECT_NAME":"GSLV R/B","OBJECT_ID":"2022-138AN","EPOCH":"2026-04-25T02:44:18.068928","MEAN_MOTION":14.97022042,"ECCENTRICITY":0.00206921,"INCLINATION":87.3817,"RA_OF_ASC_NODE":150.8074,"ARG_OF_PERICENTER":350.0621,"MEAN_ANOMALY":10.0199,"EPHEMERIS_TYPE":0,"CLASSIFICATION_TYPE":"U","NORAD_CAT_ID":54149,"ELEMENT_SET_NO":999,"REV_AT_EPOCH":19087,"BSTAR":0.00016719526,"MEAN_MOTION_DOT":1.96e-5,"MEAN_MOTION_DDOT":0},{"OBJECT_NAME":"XRISM","OBJECT_ID":"2023-137A","EPOCH":"2026-04-25T01:21:24.580800","MEAN_MOTION":15.11991328,"ECCENTRICITY":0.00075139,"INCLINATION":31.0031,"RA_OF_ASC_NODE":343.6383,"ARG_OF_PERICENTER":147.8116,"MEAN_ANOMALY":212.2983,"EPHEMERIS_TYPE":0,"CLASSIFICATION_TYPE":"U","NORAD_CAT_ID":57800,"ELEMENT_SET_NO":999,"REV_AT_EPOCH":14481,"BSTAR":0.00026559882,"MEAN_MOTION_DOT":4.772e-5,"MEAN_MOTION_DDOT":0},{"OBJECT_NAME":"ACS3","OBJECT_ID":"2024-077B","EPOCH":"2026-04-24T16:31:03.658656","MEAN_MOTION":13.91690976,"ECCENTRICITY":0.00620024,"INCLINATION":97.1838,"RA_OF_ASC_NODE":45.4561,"ARG_OF_PERICENTER":346.738,"MEAN_ANOMALY":13.2153,"EPHEMERIS_TYPE":0,"CLASSIFICATION_TYPE":"U","NORAD_CAT_ID":59588,"ELEMENT_SET_NO":999,"REV_AT_EPOCH":10059,"BSTAR":0.0033302902,"MEAN_MOTION_DOT":4.268e-5,"MEAN_MOTION_DDOT":0},{"OBJECT_NAME":"HTV-X1","OBJECT_ID":"2025-241A","EPOCH":"2026-04-22T23:48:46.558656","MEAN_MOTION":15.32728944,"ECCENTRICITY":0.00078219,"INCLINATION":51.6353,"RA_OF_ASC_NODE":219.4042,"ARG_OF_PERICENTER":344.1053,"MEAN_ANOMALY":15.9682,"EPHEMERIS_TYPE":0,"CLASSIFICATION_TYPE":"U","NORAD_CAT_ID":66174,"ELEMENT_SET_NO":999,"REV_AT_EPOCH":2773,"BSTAR":0.00014900059,"MEAN_MOTION_DOT":4.413e-5,"MEAN_MOTION_DDOT":0},{"OBJECT_NAME":"SZ-21 MODULE","OBJECT_ID":"2025-246C","EPOCH":"2026-04-24T17:37:21.379008","MEAN_MOTION":15.7208763,"ECCENTRICITY":0.0004099,"INCLINATION":41.473,"RA_OF_ASC_NODE":279.1403,"ARG_OF_PERICENTER":320.8652,"MEAN_ANOMALY":39.1894,"EPHEMERIS_TYPE":0,"CLASSIFICATION_TYPE":"U","NORAD_CAT_ID":66515,"ELEMENT_SET_NO":999,"REV_AT_EPOCH":2531,"BSTAR":0.00025921604,"MEAN_MOTION_DOT":0.00034872,"MEAN_MOTION_DDOT":0}]
