HXMT (HUIYAN)           
1 42758U 17034A   26115.30533791  .00003240  00000+0  16628-3 0  9991
2 42758  43.0135 117.3894 0031318 172.2821 187.8515 15.17987361489628
SAOCOM 1A               
1 43641U 18076A   26115.27529230  .00000321  00000+0  46853-4 0  9990
2 43641  97.8906 302.7890 0001531  89.9234 270.2155 14.82152135408267
H-2A R/B                
1 43682U 18084L   26115.24985677  .00019675  00000+0  44132-3 0  9991
2 43682  98.8663 342.6469 0023367 218.6327 141.3245 15.43182716412958
SAOCOM 1B               
1 46265U 20059A   26115.30648965 -.00000359  00000+0 -38518-4 0  9992
2 46265  97.8899 301.9138 0001585  83.6094 276.5300 14.82140294305656
CSS (TIANHE)            
1 48274U 21035A   26114.94792266  .00026533  00000+0  28753-3 0  9991
2 48274  41.4670 286.2208 0006816 268.4201  91.5858 15.62906639284840
COSMOS 2550             
1 48865U 21056A   26115.33636001  .00005867  00000+0  18392-3 0  9993
2 48865  67.1422 259.7768 0008364 269.7534  90.2662 15.33847514270618
CZ-2C R/B               
1 52794U 22058K   26115.26418241  .00046416  00000+0  59591-3 0  9999
2 52794  50.1869  78.0666 0038989  40.3055 320.0796 15.57685776217380
CZ-2C R/B               
1 54039U 22132E   26115.01258949  .00040955  00000+0  39833-3 0  9995
2 54039  97.2949 119.8916 0012906 275.7053  84.2736 15.66080823197618
GSLV R/B                
1 54149U 22138AN  26115.11409802  .00001960  00000+0  16720-3 0  9993
2 54149  87.3817 150.8074 0020692 350.0621  10.0199 14.97022042190876
XRISM                   
1 57800U 23137A   26115.05653450  .00004772  00000+0  26560-3 0  9990
2 57800  31.0031 343.6383 0007513 147.8116 212.2983 15.11991328144819
ACS3                    
1 59588U 24077B   26114.68823679  .00004268  00000+0  33303-2 0  9991
2 59588  97.1838  45.4561 0062002 346.7380  13.2153 13.91690976100590
HTV-X1                  
1 66174U 25241A   26112.99220554  .00004413  00000+0  14900-3 0  9994
2 66174  51.6353 219.4042 0007821 344.1053  15.9682 15.32728944 27734
SZ-21 MODULE            
1 66515U 25246C   26114.73427522  .00034872  00000+0  25922-3 0  9994
2 66515  41.4730 279.1403 0004099 320.8652  39.1894 15.72087630 25312
